[{"OBJECT_NAME":"IRIDIUM 136","OBJECT_ID":"2017-061H","EPOCH":"2026-03-09T23:21:02.652768","MEAN_MOTION":14.34217428,"ECCENTRICITY":0.00020185,"INCLINATION":86.3917,"RA_OF_ASC_NODE":66.7307,"ARG_OF_PERICENTER":86.502,"MEAN_ANOMALY":273.6407,"EPHEMERIS_TYPE":0,"CLASSIFICATION_TYPE":"U","NORAD_CAT_ID":42962,"ELEMENT_SET_NO":999,"REV_AT_EPOCH":44061,"BSTAR":-6.150317e-6,"MEAN_MOTION_DOT":3.0e-8,"MEAN_MOTION_DDOT":0},{"OBJECT_NAME":"SL-8 R\/B","OBJECT_ID":"1988-053B","EPOCH":"2026-03-09T14:20:34.971936","MEAN_MOTION":14.38915667,"ECCENTRICITY":0.0021414,"INCLINATION":74.046,"RA_OF_ASC_NODE":112.6362,"ARG_OF_PERICENTER":291.898,"MEAN_ANOMALY":184.3804,"EPHEMERIS_TYPE":0,"CLASSIFICATION_TYPE":"U","NORAD_CAT_ID":19257,"ELEMENT_SET_NO":999,"REV_AT_EPOCH":97658,"BSTAR":0.00010511,"MEAN_MOTION_DOT":2.98e-6,"MEAN_MOTION_DDOT":0}]
